#aV2006  9  8  0  0   .00000000      96 DD+AD WGS84 FIT  NGA
## 1391 432000.00000000   900.00000000 53986  .0000000000000
+   29     1  2  3  4  5  6  7  8  9 10 11 13 14 15 16 17 18
+         19 20 21 22 23 24 25 26 27 28 29 30  0  0  0  0  0
+          0  0  0  0  0  0  0  0  0  0  0  0  0  0  0  0  0
+          0  0  0  0  0  0  0  0  0  0  0  0  0  0  0  0  0
+          0  0  0  0  0  0  0  0  0  0  0  0  0  0  0  0  0
++         0  0  0  0  0  0  0  0  0  0  0  0  0  0  0  0  0
++         0  0  0  0  0  0  0  0  0  0  0  0  0  0  0  0  0
++         0  0  0  0  0  0  0  0  0  0  0  0  0  0  0  0  0
++         0  0  0  0  0  0  0  0  0  0  0  0  0  0  0  0  0
++         0  0  0  0  0  0  0  0  0  0  0  0  0  0  0  0  0
%c cc cc ccc ccc cccc cccc cccc cccc ccccc ccccc ccccc ccccc
%c cc cc ccc ccc cccc cccc cccc cccc ccccc ccccc ccccc ccccc
%f  0.0000000  0.000000000  0.00000000000  0.000000000000000
%f  0.0000000  0.000000000  0.00000000000  0.000000000000000
%i    0    0    0    0      0      0      0      0         0
%i    0    0    0    0      0      0      0      0         0
/*      NGA, ST. LOUIS,MO.                                  
/*   EPHEMERIS COMPUTED FROM  3 DAYS OF DATA                
/* CCCCCCCCCCCCCCCCCCCCCCCCCCCCCCCCCCCCCCCCCCCCCCCCCCCCCCCCC
/* CCCCCCCCCCCCCCCCCCCCCCCCCCCCCCCCCCCCCCCCCCCCCCCCCCCCCCCCC
*  2006  9  8 14 15   .00000000                                                 
P  1  -8356.198051 -13957.001453  21206.689816     75.534446                    
V  1  26379.994161   -535.960060  10074.993231       .021436                    
P  2  12498.514045  23374.159092   2850.603108     32.761284                    
V  2  -4626.133557  -1666.623139  31059.230688       .039221                    
P  3 -13756.917538 -12653.371954 -19157.824000     61.620581                    
V  3  23556.482248  -4736.465822 -13595.799952       .779586                    
P  4   1854.577538  22298.516768  13994.551105    306.881814                    
V  4 -11697.374285 -13958.578450  24070.523896       .059047                    
P  5  16264.212106    533.154988  20748.914327    335.602434                    
V  5  -9656.589685  25186.308105   7011.246854       .141907                    
P  6  24302.969383  -7478.173436  -7590.712650    597.366225                    
V  6  10147.646741   2652.575056  29069.517375      -.026824                    
P  7   4433.729725 -15729.113808 -20614.345581    528.892360                    
V  7  26976.758331  -1929.655495   7060.471517      -.039084                    
P  8  -5652.058893  16939.149408 -19657.927249    -78.916845                    
V  8 -13455.368590 -20821.049972 -14586.399028      -.013995                    
P  9  19414.234924  12778.725181  12513.013259     35.295496                    
V  9   7625.069037  15043.473220 -25764.478926       .016102                    
P 10   5602.982709  17214.493490 -19421.079255     89.362423                    
V 10 -12983.240600  20845.744368  15104.385252       .005828                    
P 11 -21445.908061  -7953.689518  13636.922588    349.237706                    
V 11  -8915.312336 -15495.516831 -22669.219528       .019445                    
P 13 -23890.022509   6589.540483  -9591.419135     92.542997                    
V 13 -12040.080985  -1459.058630  29311.043422       .033381                    
P 14   9227.831950 -13931.949244  20695.815537     -5.947217                    
V 14  26079.027383     14.352288 -11724.860868       .007372                    
P 15   5561.246621 -17856.933816 -18827.884535      -.331118                    
V 15  12700.275870  20188.475436 -15930.790714      -.025623                    
P 16  -2367.825514 -20310.857339 -16808.037220     71.407606                    
V 16  11808.715690 -18100.790227  20231.396554       .032786                    
P 17  -9812.439142  14400.632554  20011.973895     96.395796                    
V 17 -25475.527428   -155.644579 -12478.748156      -.009839                    
P 18  17579.095989 -17317.883447  -9261.193277   -248.433588                    
V 18  -3484.021725  11892.266535 -28804.482587      -.009261                    
P 19 -22257.557906  -8606.743628 -11627.657549     14.027162                    
V 19  14953.776410  -2139.389312 -26725.415049       .030827                    
P 20 -17498.162556   4059.818800  19467.986761    -22.670711                    
V 20  10155.974775 -22810.255417  13847.548441       .002397                    
P 21  11778.917622 -10481.950062 -21242.554256     51.577984                    
V 21  14356.971566  23228.246803  -4030.939500       .018937                    
P 22  11267.608137 -23819.302085   3386.613892    132.432955                    
V 22   4671.369322  -2019.356082 -31239.803700       .033139                    
P 23 -26589.149452   -157.796495   1895.796595    137.812682                    
V 23   2398.725508  -2494.001654  31698.424008       .001209                    
P 24  -4015.318119  18975.699471  18252.569193     34.540555                    
V 24 -12684.614806 -19042.650994  17505.910233       .028289                    
P 25  -8716.743473 -23020.769825  10179.645277    320.381154                    
V 25   9713.442488   8176.782210  28044.593651       .168838                    
P 26  21522.082492   8744.732964 -13795.830878   -246.500825                    
V 26 -16553.265195   1174.847771 -25289.080924      -.145577                    
P 27 -12300.957459   8507.094758 -21340.399414     66.840588                    
V 27 -16836.268310 -23083.407720    188.435283       .018367                    
P 28 -12958.429712  22951.782908   -444.939838     19.153469                    
V 28  -2292.787838  -2313.655449 -31985.094116      -.008321                    
P 29  19419.198068   9308.158250 -15517.621161    -38.479610                    
V 29 -19860.548650   2239.944475 -22882.341560      -.689696                    
P 30  17737.831490 -13412.661586  14140.868432      9.368974                    
V 30  -5610.740792  17873.739579  23618.094020       .012203                    
EOF
